ONEWEB-0578             
1 56067U 23043X   24318.13365675  .00000160  00000+0  35510-3 0  9993
2 56067  87.9324 359.7198 0001811  99.9408 260.1930 13.21825317 82386
ONEWEB-0579             
1 56068U 23043Y   24318.12417942  .00000098  00000+0  20551-3 0  9997
2 56068  87.9320 359.7146 0002144  89.0064 271.1315 13.21828371 82397
ONEWEB-0581             
1 56069U 23043Z   24318.15350673  .00000110  00000+0  25287-3 0  9994
2 56069  87.9101 344.5517 0002382  99.0164 261.1236 13.16597357 83411
ONEWEB-0609             
1 56070U 23043AA  24317.87761015  .00001860  00000+0  49069-2 0  9996
2 56070  87.9105  14.9354 0001617  96.8953 263.2361 13.15540988 80006
ONEWEB-0613             
1 56071U 23043AB  24318.17706301  .00000064  00000+0  13494-3 0  9997
2 56071  87.9111  14.8787 0002001  89.1889 270.9470 13.15552406 80952
ONEWEB-0630             
1 56072U 23043AC  24318.17231953  .00000030  00000+0  44944-4 0  9992
2 56072  87.9104  14.8653 0001868  87.7507 272.3837 13.15550315 80947
ONEWEB-0632             
1 56073U 23043AD  24317.86333198  .00000109  00000+0  25452-3 0  9991
2 56073  87.9107  14.9458 0002173 100.1264 260.0111 13.15551868 79991
ONEWEB-0633             
1 56074U 23043AE  24318.46545784  .00000257  00000+0  64833-3 0  9995
2 56074  87.9104  14.8024 0001764  81.8235 278.3095 13.15548124 80968
